X,Y,OBJECTID,ACP_NUM,SITE_NUM_N,SITE_NAME,PRI_CODE,LATDD,LONDD
-121.3632136,37.96807154,1,2,2-015,Calaveras River Mouth at San Joaquin River,A,37.96807,-121.3632
-121.3754112,37.96284231,2,2,2-018,Burns Cutoff at Rough and Ready Island,A,37.96284,-121.3754
-121.3241892,37.91335427,3,2,2-020,"San Joaquin River, Stockton to Lathrop Reach",A,37.91335,-121.32418
-121.3166872,37.91847853,4,2,2-021,French Camp Slough,A,37.91847,-121.31667
-121.4243046,37.99457926,5,2,2-030,"San Joaquin River, Roberts Island Reach",A,37.99457,-121.42429
-121.409328,37.99815774,6,2,2-033,Fourteenmile Slough,A,37.99815,-121.40932
-121.4527189,38.00597091,7,2,2-040,"San Joaquin River, Hog Island Cut Complex",A,38.00597,-121.45271
-121.4805561,38.04053649,8,2,2-045,Disappointment Slough,A,38.04053,-121.48054
-121.4934104,38.03981452,9,2,2-050,"San Joaquin River, Ward Cut Islands Complex",A,38.03981,-121.4934
-121.5341104,38.05484158,10,2,2-060,"San Joaquin River, Mandeville/Venice Tips Complex",A,38.05484,-121.5341
-121.5018792,38.07423606,11,2,2-065,Little Potato Slough,A,38.07423,-121.50187
-121.5603768,38.08667907,12,2,2-070,Potato Slough,A,38.08667,-121.56036
-121.4850588,38.09156747,13,2,2-080,Whites Slough,A,38.09156,-121.48505
-121.3327744,37.95193306,14,2,2-010/020,"San Joaquin River, Port of Stockton",A,37.95193,-121.33276
-123.5340381,38.76873257,15,2,2-100,Gualala River Inlet,A,38.76873,-123.53402
-123.1294653,38.45041036,16,2,2-122,Russian River Inlet - Mouth and Estuary,A,38.45041,-123.12945
-123.1263795,38.44657945,17,2,2-125,Goat Rock Beach,A/C,38.44657,-123.12637
-123.1219301,38.43603832,18,2,2-128,Blind Beach,A/C,38.43603,-123.12192
-123.0988882,38.40515053,19,2,2-131,Wright's Beach,A/C,38.40515,-123.09887
-123.0855521,38.38967906,20,2,2-134,Gleason Beach,A/C,38.38967,-123.08554
-123.0816434,38.3817978,21,2,2-137,Portuguese Beach,A/C,38.38179,-123.08163
-123.0677831,38.35488678,22,2,2-140,Salmon Creek,A,38.35488,-123.06777
-123.0484226,38.29608802,23,2,2-146,Bodega Rock,A,38.29608,-123.04841
-123.0478301,38.32345029,24,2,2-150,Bodega Harbor,A,38.32345,-123.04782
-123.0029256,38.29574304,25,2,2-155,Estero Americano,A,38.29574,-123.00291
-122.9455613,38.20961231,26,2,2-164,Tomales Bay,A,38.20961,-122.94555
-122.9794892,38.26985194,27,2,2-158,Estero de San Antonio,A,38.26985,-122.97948
-122.9944491,38.22992922,28,2,2-194,Bird Rock,A,38.22992,-122.99444
-122.9616202,38.22446593,29,2,2-166,Sand Point to Toms Point,A,38.22446,-122.96161
-122.9288973,38.21037119,30,2,2-168,Walker Creek and Delta,A,38.21037,-122.92888
-122.9470067,38.19451949,31,2,2-174,White Gulch,A,38.19451,-122.94699
-122.9011981,38.16981948,32,2,2-179,Cypress Grove Preserve,A,38.16981,-122.90118
-122.9063768,38.14965202,33,2,2-181,Sacramento Landing Marshes,A,38.14965,-122.90636
-122.8644948,38.12014795,34,2,2-184,Tomasini Point,A,38.12014,-122.86448
-122.8516919,38.10881127,35,2,2-186,Millerton Point,A,38.10881,-122.85168
-122.8570155,38.10118132,36,2,2-188,Inverness,A,38.10118,-122.857
-122.8276355,38.08231071,37,2,2-191,Lagunitas Creek and Delta Marsh,A,38.08231,-122.82762
-122.9533758,38.11744177,38,2,2-197,Abbott's Lagoon,A,38.11744,-122.95336
-122.971719,38.0905667,39,2,2-198,Point Reyes Beach,A,38.09056,-122.97171
-122.9422283,38.04742171,40,2,2-205,Drakes Estero,A,38.04742,-122.94222
-122.9616842,38.02743036,41,2,2-203,Drakes Beach (West),A,38.02743,-122.96167
-122.9055642,38.0288202,42,2,2-207,Limantour Spit,A,38.02882,-122.90555
-122.779057,37.94586154,43,2,2-216,Double Point & Stormy Stack,A,37.94586,-122.77904
-123.047521,37.74242206,44,2,2-240,Farallon Islands,A,37.74242,-123.04751
-122.6810897,37.9182879,45,2,2-222,Bolinas Lagoon,A,37.91828,-122.68108
-122.577765,37.85967166,46,2,2-225,Redwood Creek/Big Lagoon/Muir Beach,A,37.85967,-122.57775
-122.5311019,37.8307684,47,2,2-228,Rodeo Lagoon,A,37.83076,-122.53109
-122.5366616,37.82409733,48,2,2-231,Bird Island,A,37.82409,-122.53665
-122.5055358,37.78771563,49,2,2-244,Land's End,A,37.78771,-122.50552
-122.5082593,37.73836849,50,2,2-248,Ocean Beach/Fort Funston,A,37.73836,-122.50825
-122.4991797,37.69660396,51,2,2-250,Thornton Beach State Park,A,37.6966,-122.49917
-122.9945643,37.99380713,52,2,2-201,Point Reyes Headlands,A,37.9938,-122.99455
-122.4956933,37.50291894,53,2,2-262,Pillar Point Marsh & Denniston Creek,A,37.50291,-122.49568
-122.4467932,37.46229115,54,2,2-264,Naples Beach to S. Miramontes Point & Halfmoon Bay,A/C,37.46229,-122.44678
-122.4080356,37.37494172,55,2,2-266,Martins Beach,A/C,37.37494,-122.40802
-122.3999733,37.35770806,56,2,2-269,Tunitas Beach & Creek,A,37.3577,-122.39996
-122.4023559,37.33599356,57,2,2-271,Mussel Rock to San Gregorio Beach,A,37.33599,-122.40234
-122.4030522,37.3209634,58,2,2-273,San Gregorio Creek,A,37.32096,-122.40304
-122.4083784,37.28917013,59,2,2-275,San Mateo Coast State Beaches,A,37.28917,-122.40837
-122.4043843,37.26492843,60,2,2-280,Pescadero Marsh,A,37.26492,-122.40437
-122.3626965,37.16466686,61,2,2-287,Gazos Creek,A,37.16466,-122.36268
-122.3378359,37.10853469,62,2,2-293,Ano Nuevo Island,A,37.10853,-122.33782
-122.3289295,37.11329007,63,2,2-294,Point Ano Nuevo,A,37.11329,-122.32892
-122.3603483,37.14979873,64,2,2-298,Franklin Point to Waddell Creek,A,37.14979,-122.36034
-122.4057973,37.2980175,65,2,2-277,Pomponio Creek,A,37.29801,-122.40578
-122.338069,37.13582648,66,2,2-291,Cascade Creek,A,37.13582,-122.33806
-122.1010627,37.49966436,67,2,2-340,Dumbarton Point Marsh/Mudflat,A,37.49966,-122.10105
-122.0850361,37.50519821,68,2,2-342,Newark/Plummer Creek,A,37.50519,-122.08502
-122.0525379,37.49194954,69,2,2-344,Mowry Slough,A,37.49194,-122.05252
-122.0408724,37.46287179,70,2,2-346,Coyote Creek,A,37.46287,-122.04086
-122.2243628,37.75080177,71,2,2-309,San Leandro Bay,A,37.7508,-122.22435
-122.2011182,37.70398447,72,2,2-312,Oyster Bay Marshes,A,37.70398,-122.20111
-122.1639068,37.66972358,73,2,2-315,"San Lorenzo Creek, Bunker & North Marshes",A,37.66972,-122.16389
-122.1598256,37.65900495,74,2,2-320,Oro Loma Marshes,A,37.659,-122.15981
-122.1538573,37.63022896,75,2,2-324,San Lorenzo Creek to Johnston Landing,A,37.63022,-122.15384
-122.1480289,37.59419125,76,2,2-325,Eden Landing Ecological Reserve-Alameda Creek,A,37.59419,-122.14802
-122.1322323,37.56182546,77,2,2-326,Coyote Hills Slough-Alameda Flood Control Channel,A,37.56182,-122.13222
-124.2023895,41.91511694,78,1,1-115,South Spit Smith River,A,41.91511,-124.20238
-124.2179082,41.82484124,79,1,1-125,Lake Tolowa Inlet,A,41.82484,-124.21789
-124.3519152,41.81394272,80,1,1-130,Southwest Seal Rock,A,41.81394,-124.3519
-124.2512081,41.78314194,81,1,1-135,Point St. George,A,41.78314,-124.25119
-124.2498074,41.76154223,82,1,1-140,Castle Rock National Wildlife Refuge,A,41.76154,-124.24979
-124.1927195,41.74853563,83,1,1-145,Elk Creek & Crescent City Harbor,A,41.74853,-124.19271
-124.2045057,41.74654226,84,1,1-150,Battery Point,A,41.74654,-124.20449
-124.142903,41.66654383,85,1,1-155,Del Norte Coast Redwoods State Park,A,41.66654,-124.14289
-124.1012009,41.58314589,86,1,1-170,Footstep Rocks to Radar Station Rocks,A,41.58314,-124.10119
-124.1021248,41.60095645,87,1,1-175,Wilson Creek & Lagoon Creek,A,41.60095,-124.10211
-124.0834,41.54704688,88,1,1-180,Klamath River Mouth & Estuary,A,41.54704,-124.08339
-124.0853716,41.51937226,89,1,1-185,Flint Rock & White Rock,A,41.51937,-124.08536
-124.2053033,41.94672873,90,1,1-110,Mouth of Smith River,A,41.94672,-124.20529
-124.0705979,41.38904925,91,1,1-205,Gold Bluffs Beach,A,41.38904,-124.07058
-124.1785001,41.34064886,92,1,1-210,Reading Rock,A,41.34064,-124.17849
-124.0919973,41.29235,93,1,1-215,Redwood Creek,A,41.29234,-124.09198
-124.0944967,41.24375045,94,1,1-220,Stone Lagoon,A,41.24375,-124.09448
-124.1678955,41.09985102,95,1,1-235,Patrick's Point to Trinidad,A,41.09985,-124.16788
-124.1387329,41.0549403,96,1,1-240,Trinidad Bay & McConnahas Mill Creek,A,41.05494,-124.13872
-124.1094924,41.01655256,97,1,1-245,Little River Beach,A,41.01655,-124.10948
-124.1178922,40.9998526,98,1,1-250,Clam Beach,A,40.99985,-124.11788
-124.1346902,40.92785322,99,1,1-255,Mad River,A,40.92785,-124.13468
-124.2344873,40.76095274,100,1,1-305,Humboldt Bay Inlet & Samoa Peninsula,A,40.76095,-124.23447
-124.1823371,40.80641513,101,1,1-310,North Humboldt Bay,A,40.80641,-124.18232
-124.1447886,40.87485365,102,1,1-320,Mad River Slough,A,40.87485,-124.14477
-124.187987,40.79075361,103,1,1-340,Palco Marsh,A,40.79075,-124.18797
-124.1972866,40.77095357,104,1,1-345,Elk River,A,40.77095,-124.19727
-124.2392851,40.70545383,105,1,1-350,South Humboldt Bay,A,40.70545,-124.23927
-124.3122845,40.64155481,106,1,1-260,Eel River,A,40.64155,-124.31227
-124.1178959,41.17485091,107,1,1-230,Big Lagoon,A,41.17485,-124.11788
-124.3500829,40.57345618,108,1,1-265,Centerville Beach,A,40.57345,-124.35007
-124.396482,40.50995726,109,1,1-268,False Cape Rock,A,40.50995,-124.39647
-124.4094805,40.44015883,110,1,1-273,Cape Mendocino,A,40.44015,-124.40947
-124.3544747,40.29276288,111,1,1-285,Mattole River,A,40.29276,-124.35446
-124.1889649,40.15456753,112,1,1-294,Shubrick Peak,A,40.15456,-124.18895
-124.2608862,40.71655321,113,1,1-360,South Spit,A,40.71655,-124.26087
-124.0931561,40.85349319,114,1,1-324,Arcata Bay,A,40.85349,-124.09314
-124.1465129,40.8101384,115,1,1-326,Eureka Slough,A,40.81013,-124.1465
-124.2236519,40.68474636,116,1,1-352,White Slough & Salmon Creek,A,40.68474,-124.22364
-123.9157489,39.88077662,117,1,1-404,Jackass Creek,A,39.88077,-123.91574
-123.8507472,39.83047886,118,1,1-408,Usal Creek,A,39.83047,-123.85073
-123.848947,39.82067918,119,1,1-410,Shoreline Rock,A,39.82067,-123.84893
-123.8380456,39.75708126,120,1,1-412,Soldier Frank Point,A,39.75708,-123.83803
-123.828645,39.7340822,121,1,1-414,Rockport Bay & Cottaneva Creek Inlet,A,39.73408,-123.82863
-123.8075443,39.71068328,122,1,1-416,Hardy Creek,A,39.71068,-123.80753
-123.7678407,39.55408985,123,1,1-430,Ten Mile River,A,39.55408,-123.76783
-123.8194408,39.43929506,124,1,1-442,Soldier Point,A,39.43929,-123.81943
-123.8139405,39.42739565,125,1,1-444,Noyo Harbor Entrance & Dolphin Cove,A,39.42739,-123.81393
-123.8178403,39.36119894,126,1,1-454,Caspar Creek & Doyle Creek,A,39.36119,-123.81783
-123.8261404,39.3415999,127,1,1-456,Point Cabrillo to Jack Peter's (Russian Gulch),A,39.34159,-123.82613
-123.7914388,39.2730034,128,1,1-464,Van Damme State Beach Inlet & Little River,A,39.273,-123.79143
-123.7703386,39.22710542,129,1,1-468,Albion River,A,39.2271,-123.77032
-123.7758392,39.21380586,130,1,1-470,Salmon Point & Big Salmon Creek,A,39.2138,-123.77583
-123.7611394,39.19210667,131,1,1-472,Navarro River State Park,A,39.1921,-123.76113
-123.7287404,39.13570813,132,1,1-474,Greenwood Creek to Cuffey's Cove,A,39.1357,-123.72873
-123.7094409,39.09990891,133,1,1-478,Elk Creek,A,39.0999,-123.70943
-123.733644,38.95431391,134,1,1-484,Garcia River and Manchester State Beach,A,38.95431,-123.73363
-124.2179122,41.96653932,135,1,1-105,Oregon border to Pyramid Pt.,A,41.96653,-124.2179
-122.2766951,37.0924528,136,3,3-110,Waddell Creek Inlet and Beach,A,37.09245,-122.27668
-122.229294,37.03855415,137,3,3-130,Scott Creek Inlet and Molino Creek Inlet,A/B,37.03855,-122.22928
-122.065288,36.94825614,138,3,3-185,Terrace Point/Younger Lagoon,A/B,36.94825,-122.06528
-122.1538916,36.9832554,139,3,3-160,Laguna Creek Inlet and Beach,A/B,36.98325,-122.15388
-122.1407911,36.97665555,140,3,3-165,Majors Creek Inlet,A/B,36.97665,-122.14078
-122.1229903,36.96635578,141,3,3-170,Baldwin Creek Inlet/Four Mile Beach,A/B,36.96635,-122.12298
-122.0779886,36.95315603,142,3,3-175,Wilder Creek Inlet and Beach,A,36.95315,-122.07798
-122.0585878,36.94995608,143,3,3-190,Moore Creek/Natural Bridges State Park,A/B,36.94995,-122.05857
-122.1701923,36.99255521,144,3,3-155,Yellow Bank Creek,A/B,36.99255,-122.17018
-122.1941931,37.00935483,145,3,3-145,San Vicente Creek,A/B,37.00935,-122.19418
-122.1816928,36.99995504,146,3,3-150,Liddell Creek and Bonny Doon Beach,A/B,36.99995,-122.18168
-122.0724477,36.94942927,147,3,3-180,"Offshore Rock, north of Terrace Point",A/B,36.94942,-122.07243
-122.0124863,36.96415555,148,3,3-210,San Lorenzo River Inlet,A,36.96415,-122.01247
-122.0179865,36.96135565,149,3,3-205,Santa Cruz Municipal Wharf and Santa Cruz Beach,A,36.96135,-122.01797
-121.9816849,36.96165569,150,3,3-240,Corcoran Lagoon Inlet (Rodeo Creek Inlet),A/B,36.96165,-121.98167
-121.9065815,36.96915584,151,3,3-270,Aptos Creek Inlet,A,36.96915,-121.90657
-121.842478,36.90095804,152,3,3-280,Sunset and Manresa State Beaches,A,36.90095,-121.84246
-121.8202768,36.8655591,153,3,3-285,Palm Beach/Sunset State Beach (south end),A,36.86555,-121.82026
-121.8096762,36.84995957,154,3,3-290,Pajaro River Inlet,A,36.84995,-121.80966
-121.9518837,36.97165555,155,3,3-250,Soquel Creek Inlet,A,36.97165,-121.95187
-121.8024758,36.83715994,156,3,3-301,Zmudowski Beach State Park,A,36.83715,-121.80246
-121.7902751,36.80576083,157,3,3-305,Moss Landing Inlet (a.k.a. Elkhorn Slough Entrance,A,36.80576,-121.79026
-121.7963753,36.78306142,158,3,3-325,Salinas River State Beach,A,36.78306,-121.79636
-121.8117164,36.69148253,159,3,3-340,Marina State Beach,A,36.69148,-121.8117
-121.8035753,36.74936231,160,3,3-330,Salinas River Inlet,A,36.74936,-121.80356
-121.8566766,36.61376464,161,3,3-345,Monterey Bay Dunes,A,36.61376,-121.85666
-121.8895778,36.60846476,162,3,3-370,Coast Guard Jetty in Monterey Bay,A,36.60846,-121.88956
-121.9042785,36.62166451,163,3,3-380,Point Cabrillo,A,36.62166,-121.90427
-121.8907778,36.60536482,164,3,3-360,Monterey Harbor Entrance,A,36.60536,-121.89076
-121.8841775,36.60136489,165,3,3-375,Monterey State Beach,A,36.60136,-121.88416
-121.9666806,36.59006517,166,3,3-435,Bird Rock,A,36.59006,-121.96667
-121.9691806,36.58246533,167,3,3-440,Fan Shell Beach,A/B,36.58246,-121.96917
-121.9254785,36.52556639,168,3,3-460,Carmel River and San Jose Creek Inlet,A,36.52556,-121.92547
-121.9527795,36.52166653,169,3,3-470,Point Lobos,A,36.52166,-121.95277
-121.94468,36.6177646,170,3,3-420,Spanish Bay and Moss Beach,A,36.61776,-121.94467
-121.9398799,36.62696442,171,3,3-410,Asilomar State Beach,A/B,36.62696,-121.93987
-121.9160793,36.41776753,172,3,3-500,Garrapata Creek Inlet,A,36.41776,-121.91607
-121.9049796,36.3780678,173,3,3-505,Sea Bluffs and Rocky Creek,A,36.37806,-121.90497
-121.8932799,36.33496809,174,3,3-515,Little Sur River Inlet and Beach,A,36.33496,-121.89327
-121.8962803,36.31286828,175,3,3-520,Point Sur Beach,A,36.31286,-121.89627
-121.8591798,36.28076831,176,3,3-530,Big Sur River Inlet,A,36.28076,-121.85917
-121.8174791,36.23856834,177,3,3-540,Pfeiffer Beach,A,36.23856,-121.81747
-121.4752599,35.93666722,178,3,3-580,Gorda Beaches,A/B,35.93666,-121.47525
-121.8861802,36.30196831,179,3,3-525,Sandy beach south of Point Sur,A,36.30196,-121.88617
-121.5198076,36.00866432,180,3,3-570,Limekiln State Park,A,36.00866,-121.51979
-121.324952,35.76437188,181,4,4-005,San Carpoforo Creek Inlet,A,35.76437,-121.32494
-121.3156515,35.74977208,182,4,4-010,Arroyo Hondo Creek Beach,A,35.74977,-121.31564
-121.3104507,35.70997285,183,4,4-015,Arroyo de la Cruz Inlet,A,35.70997,-121.31044
-121.3124508,35.70717288,184,4,4-020,La Cruz Rock,A,35.70717,-121.31244
-121.2905495,35.69137336,185,4,4-025,Arroyo del Oso,A,35.69137,-121.29054
-121.2874493,35.68387352,186,4,4-030,Arroyo del Corral Creek,A,35.68387,-121.28744
-121.2853489,35.66427388,187,4,4-035,Point Piedras Blancas,A,35.66427,-121.28534
-121.2718478,35.66675571,188,4,4-040,Elephant Seal Beaches south of Pt. Pierdas Blancas,A,35.66675,-121.27184
-121.2196455,35.65107447,189,4,4-050,Oak Knoll Creek Inlet (aka Arroyo Laguna),A,35.65107,-121.21963
-121.1885437,35.64307469,190,4,4-055,Arroyo del Puerto,A,35.64307,-121.18853
-121.1827434,35.64187473,191,4,4-060,Broken Bridge Creek inlet,A,35.64187,-121.18273
-121.1676425,35.63197493,192,4,4-065,"Little Pico Creek, rock offshore",A,35.63197,-121.16763
-121.1638423,35.63387491,193,4,4-070,Little Pico Creek Inlet,A,35.63387,-121.16383
-121.1491413,35.61557525,194,4,4-075,Pico Creek Inlet,A,35.61557,-121.14913
-121.12744,35.59527564,195,4,4-080,San Simeon Creek Inlet,A,35.59527,-121.12743
-121.1110389,35.56887612,196,4,4-085,Santa Rosa Creek Inlet,A,35.56887,-121.11103
-121.2587077,35.66299412,197,4,4-040,New southern boundary for 040,A,35.66299,-121.25869
-120.970231,35.46027806,198,4,4-115,Villa Creek inlet,A,35.46027,-120.97022
-120.9402294,35.44637823,199,4,4-120,Cayucos Point Harbor Seal Haulout,A,35.44637,-120.94022
-120.9082278,35.44937818,200,4,4-125,Cayucos Creek inlet,A,35.44937,-120.90822
-120.8829265,35.42777841,201,4,4-130,Morro Strand State Beach (Pismo Clam Preserve),A,35.42777,-120.88291
-120.8741261,35.41277857,202,4,4-135,Toro Creek,A,35.41277,-120.87411
-120.8661258,35.39217878,203,4,4-140,Morro Strand State Beach,A,35.39217,-120.86611
-120.8647257,35.37267899,204,4,4-145,Morro Strand State Beach (Pismo Clam Preserve),A,35.37267,-120.86471
-120.8676259,35.36937903,205,4,4-150,Morro Rock Ecological Reserve,A,35.36937,-120.86761
-120.8647257,35.36697905,206,4,4-200,Morro Bay inlet,A,35.36697,-120.86471
-120.8449284,35.35295791,207,4,4-205,Morro Bay Cannery natural eddie,A,35.35727,-120.84991
-120.8432905,35.34915952,208,4,4-210,"Morro Bay, Inn at natural eddie",A,35.35287,-120.84541
-120.8438248,35.34577923,209,4,4-215,"Morro Bay, State Park Marina",A,35.34577,-120.84381
-120.8421247,35.34057928,210,4,4-225,Chorro Creek inlet,A,35.34057,-120.84211
-120.8327243,35.34487921,211,4,4-220,Morro Bay Marsh habitat,A,35.34487,-120.83271
-120.8313243,35.33807928,212,4,4-230,Los Osos Creek inlet,A,35.33807,-120.83131
-120.8410247,35.32617942,213,4,4-235,Sweet Springs Marsh,A,35.32617,-120.84101
-120.8508252,35.32047951,214,4,4-240,Cuesta By The Sea inlet,A,35.32047,-120.85081
-120.8633257,35.34577928,215,4,4-300,Morro Bay Sand Spit,A,35.34577,-120.86331
-120.8824266,35.28288003,216,4,4-305,Morro Dunes Ecological Reserve,A,35.28288,-120.88241
-120.8885268,35.27558013,217,4,4-310,Islay Creek inlet,A,35.27558,-120.88851
-120.8727264,35.21778049,218,4,4-315,Lion Rock,A,35.21778,-120.87271
-120.8547484,35.20771178,219,4,4-320,Diablo Canyon Power Plant,A,35.20771,-120.85474
-120.7382214,35.17938,220,4,4-340,San Luis Creek inlet,A,35.17938,-120.73821
-120.6838193,35.14858023,221,4,4-400,Bird Rock,A,35.14858,-120.68381
-120.6191162,35.18588017,222,4,4-410,Pismo Creek upstream,A,35.18588,-120.6191
-120.6407176,35.13358043,223,4,4-415,Pismo Creek,A,35.13358,-120.6407
-120.6302178,35.06078089,224,4,4-420,"Pismo Dunes State Vehicular Recreation Area, north",A,35.06078,-120.63021
-120.6310175,35.10078065,225,4,4-425,Arroyo Grande Creek inlet,A,35.10078,-120.631
-120.632618,35.04288098,226,4,4-430,"Pismo Dunes State Vehicular Recreation Area, south",A,35.04288,-120.63261
-120.6338182,35.03168104,227,4,4-435,Oso Flaco Creek inlet,A,35.03168,-120.63381
-120.6402187,35.00198116,228,4,4-440,Pismo-Oceano Beach Clam Preserve,A,35.00198,-120.64021
-120.6469189,34.98098149,229,4,4-445,Unocal Guadalupe Oil Field,A,34.98098,-120.64691
-120.650219,34.97078166,230,4,4-450,Santa Maria River mouth,A,34.97078,-120.65021
-120.6704195,34.90308285,231,4,4-505,Point Sal area,A,34.90308,-120.67041
-120.6098166,34.84568424,232,4,4-510,Shuman Creek mouth,A,34.84568,-120.6098
-120.6216289,34.79921764,233,4,4-515,San Antonio Creek & Lagoon,A,34.79921,-120.62162
-120.6183168,34.81008486,234,4,4-520,Minuteman Beach - Lion's Head to north of Purisima,A,34.81008,-120.6183
-120.6366173,34.75608582,235,4,4-525,Purisima Point area,A,34.75608,-120.6366
-120.6018155,34.69188704,236,4,4-540,Santa Ynez River mouth,A,34.69188,-120.6018
-120.6377164,34.60858855,237,4,4-555,La Honda Creek,A,34.60858,-120.6377
-120.6457165,34.58408902,238,4,4-560,"Point Pedemales, Point Arguello and Rocky Point",A,34.58408,-120.6457
-120.5027106,34.51108977,239,4,4-565,Jalama Creek,A,34.51108,-120.5027
-120.448707,34.44369179,240,4,4-567,"Point Conception, Government Point and Cojo Bay",A,34.44369,-120.44869
-120.4266058,34.4499919,241,4,4-570,"Damsite Canyon Creek, Canada del Cojo",A,34.44999,-120.42659
-120.3329009,34.46249273,242,4,4-575,Arroyo El Bulito,A,34.46249,-120.33289
-120.3064995,34.46689295,243,4,4-580,Canada de Santa Anita (creek),A,34.46689,-120.30649
-120.2717977,34.46889332,244,4,4-585,Canada de Alegria (creek),A,34.46889,-120.27179
-120.2523966,34.46809356,245,4,4-590,Canada del Agua Caliente,A,34.46809,-120.25238
-120.2269957,34.47049381,246,4,4-601,Gaviota Creek,A,34.47049,-120.22698
-120.0695892,34.4630958,247,4,4-610,Refugio Creek,A,34.46309,-120.06958
-120.0220872,34.45779649,248,4,4-615,El Capitan Creek,A,34.45779,-120.02207
-119.9172851,34.43049919,249,4,4-635,Tecolote Canyon Creek,A,34.43049,-119.91727
-119.913185,34.42819933,250,4,4-640,Bell Canyon Creek,A,34.42819,-119.91317
-119.8793843,34.41000039,251,4,4-645,Devereaux Slough,A,34.41,-119.87937
-119.8255841,34.41720134,252,4,4-655,Goleta Slough,A,34.4172,-119.82557
-119.7426826,34.40220292,253,4,4-660,Arroyo Burro Creek,A,34.4022,-119.74267
-119.6647845,34.41723627,254,4,4-672,Sycamore Creek & Andree Clark Bird Refuge,A,34.41723,-119.66477
-119.6201755,34.41890086,255,4,4-674,Fernald Point,A,34.4189,-119.62016
-119.5578097,34.41303902,256,4,4-680,Sandyland area and Arroyo Paredon,A,34.41303,-119.5578
-119.5354568,34.39806226,257,4,4-685,Carpinteria Salt Marsh,A,34.39806,-119.53544
-119.5212688,34.39189996,258,4,4-690,"Carpinteria Creek, Carpinteria City and State Beac",A,34.3919,-119.52126
-120.0448881,34.46249231,259,4,4-613,Corral/Las Floras Creeks - Exxon Las Flores,A,34.46249,-120.04488
-119.3078582,34.2756065,260,4,4-740,Ventura River mouth,A,34.2756,-119.30785
-119.2836908,34.27177974,261,4,4-743,San Jon - San Buenaventura State Beach area,A,34.27177,-119.28368
-119.2648564,34.24940874,262,4,4-747,Ventura Harbor,A,34.2494,-119.26484
-119.2637563,34.23530886,263,4,4-750,Santa Clara River estuary,A,34.2353,-119.26374
-119.2573559,34.21390914,264,4,4-761,McGrath State Beach,A,34.2139,-119.25734
-119.2487554,34.19800939,265,4,4-765,Mandalay State Beach,A,34.198,-119.24874
-119.2301544,34.16260968,266,4,4-769,Oxnard State Beach,A,34.1626,-119.23014
-119.1844525,34.13691013,267,4,4-783,Ormond Beach,A,34.13691,-119.18444
-119.1090492,34.09501113,268,4,4-787,Laguna Point area,A,34.09501,-119.10904
-119.0978489,34.10111114,269,4,4-790,Mugu Lagoon,A,34.10111,-119.09784
-120.3762951,34.06160071,270,4,4-806,"San Miguel Island, East Simonton Cove",A,34.0616,-120.37628
-120.4500011,34.02930094,271,4,4-800,"San Miguel Island, Point Bennett area",A,34.0293,-120.44999
-120.3706935,34.01650171,272,4,4-818,"San Miguel Island, south side",A,34.0165,-120.37068
-120.3522927,34.05050111,273,4,4-812,"San Miguel Island, Cuyler Harbor, East Side",A,34.0505,-120.35228
-120.3339912,34.05790107,274,4,4-813,"San Miquel Island, Prince Island",A,34.0579,-120.33398
-120.3189895,34.0419015,275,4,4-815,"San Miguel Island, Bay Point area",A,34.0419,-120.31898
-120.2493819,34.00170277,276,4,4-820,"Santa Rosa Island, west end",A/B,34.0017,-120.24937
-120.0954772,34.02310595,277,4,4-824,"Santa Rosa Island, north central area",A,34.0231,-120.09546
-120.0490743,33.91530975,278,4,4-844,"Santa Rosa Island, Ford Point area",A,33.9153,-120.04906
-119.9783733,33.98240929,279,4,4-829,"Santa Rosa Island, northeast end",A,33.9824,-119.97836
-119.9765731,33.9576099,280,4,4-834,"Santa Rosa Island, lagoon on east side",A,33.95761,-119.97656
-119.8685743,33.97990982,281,4,4-850,"Santa Cruz Island, Posa anchorage",A,33.9799,-119.86856
-119.8768751,34.02360873,282,4,4-852,"Santa Cruz Island, Christi Ranch area",A,34.0236,-119.87686
-119.918276,34.07780722,283,4,4-855,"Santa Cruz Island, northwest area",A,34.0778,-119.91826
-119.8181744,33.95981057,284,4,4-878,"Santa Cruz Island, Punta Arena area",A,33.95981,-119.81816
-119.6861738,34.0280088,285,4,4-858,"Santa Cruz Island, Prisoners Harbor",A,34.028,-119.68616
-119.3848608,34.00833912,286,4,4-880,Anacapa Island,A,34.00833,-119.38485
-118.6798122,34.03240484,287,5,5-110,Malibu Lagoon Coastal Wetland,A,34.0324,-118.6798
-118.4566122,33.96590485,288,5,5-120,Venice Beach,A/C,33.9659,-118.4566
-118.4617122,33.96050485,289,5,5-130,Marina Del Rey Breakwater,A/C,33.9605,-118.4617
-118.4537182,33.96251885,290,5,5-140,Ballona Creek,A/B,33.96251,-118.45371
-118.4518622,33.96289485,291,5,5-150,"Ballona Lagoon Wetlands, Del Rey Lagoon",A,33.96289,-118.45185
-118.3988091,33.84360184,292,5,5-160,King Harbor Breakwater,A/C,33.8436,-118.3988
-118.2842841,33.71438783,293,5,5-210,Carbrillo Beach Wetlands,A,33.71438,-118.28427
-118.2580591,33.70623283,294,5,5-220,Los Angeles Harbor Breakwater,A/C,33.70623,-118.25805
-118.2057231,33.72296083,295,5,5-230,Middle Breakwater,A/C,33.72296,-118.20571
-118.1564201,33.72315784,296,5,5-240,Long Beach Harbor Breakwater,A/C,33.72315,-118.15641
-118.1989591,33.76196084,297,5,5-250,Golden Shore Marine Reserve,A,33.76196,-118.19895
-118.1157521,33.74499484,298,5,5-260,Alamitos Bay/Los Cerritos Wetlands,A,33.74499,-118.11574
-118.0819781,33.73132709,299,5,5-310,"Anaheim Bay, Seal Beach Wildlife Refuge",A,33.73132,-118.08197
-118.0725546,33.71797916,300,5,5-320,Bolsa Chica,A,33.71797,-118.07254
-117.9578901,33.6301516,301,5,5-350,Santa Ana River -,A,33.63015,-117.95788
-117.88716,33.62746435,302,5,5-365,Upper Newport Bay,A,33.62746,-117.88715
-117.8805117,33.59788114,303,5,5-360,Lower Newport Bay,A,33.59788,-117.8805
-117.6823188,33.46255379,304,5,5-390,San Juan Creek,A,33.46255,-117.68231
-117.9622326,33.63247744,305,5,5-330,Talbert Marsh,A,33.63247,-117.96222
-117.6976433,33.45637714,306,5,5-385,Dana Pt. Breakwater,A/C,33.45637,-117.69763
-117.9558036,33.63133529,307,5,5-340,Newport Slough Wetland,A,33.63133,-117.95579
-117.7518006,33.51081141,308,5,5-370,Aliso Creek,A,33.51081,-117.75179
-118.5374121,33.47720479,309,5,5-410,Arrow Point - Catalina Island,A/B,33.4772,-118.5374
-118.5063121,33.43030478,310,5,5-420,Catalina Island Harbor - Catalina Island,A/B,33.4303,-118.5063
-118.4907121,33.46310479,311,5,5-430,Ship Rock - Catalina Island,A,33.4631,-118.4907
-118.4862121,33.45100479,312,5,5-440,Bird Rock - Catalina Island,A,33.451,-118.4862
-118.4666121,33.32880478,313,5,5-450,China Point - Catalina Island,A/B,33.3288,-118.4666
-118.4225121,33.31730478,314,5,5-460,Salta Verde Point - Catalina Island,A/B,33.3173,-118.4225
-118.3059121,33.30710478,315,5,5-470,Seal Rocks - Catalina Island,A/B,33.3071,-118.3059
-119.5359929,33.27203068,316,5,5-510,San Nicholas Island,A,33.27203,-119.53598
-119.0377339,33.48425102,317,5,5-550,Santa Barbara Island,A/B,33.48425,-119.03772
-117.4642221,33.28836928,318,6,6-120,Las Flores Creek,A,33.28836,-117.46421
-117.4433269,33.26415455,319,6,6-130,Aliso Canyon Creek,A,33.26415,-117.44332
-117.4416028,33.26208309,320,6,6-135,French Canyon Creek,A,33.26208,-117.44159
-117.4323156,33.25040882,321,6,6-140,Cockleburr Canyon,A,33.2504,-117.4323
-117.415885,33.23003983,322,6,6-145,Santa Margarita River,A,33.23003,-117.41587
-117.3922468,33.2020669,323,6,6-150,San Luis Rey River,A,33.20206,-117.39223
-117.3458836,33.14504298,324,6,6-155,Agua Hedionda Lagoon,A,33.14504,-117.34587
-117.314183,33.08674518,325,6,6-160,Batiquitos Lagoon,A,33.08674,-117.31417
-117.2825354,33.0159234,326,6,6-165,San Elijo Lagoon,A,33.01592,-117.28252
-117.2708822,32.97504912,327,6,6-170,San Dieguito Lagoon,A,32.97504,-117.27087
-117.260882,32.93335016,328,6,6-175,Los Panasquitos Lagoon,A,32.93335,-117.26087
-117.2591824,32.75675425,329,6,6-200,Mission Bay Entrance - San Diego River Mouth,A,32.75675,-117.25917
-117.2306459,32.78958152,330,6,6-210,Kendall-Frost Reserve,A,32.78958,-117.23063
-117.2301609,32.68329059,331,6,6-400,Entrance San Diego Harbor,A,32.68329,-117.23015
-117.1224759,32.6568581,332,6,6-420,24th St. Terminal Cross Bay Booming Strategy,A,32.65685,-117.12246
-117.1575775,32.66565758,333,6,6-430,USN Delta Beach,A,32.66565,-117.15757
-117.1091751,32.64175862,334,6,6-440,Sweetwater River National Wildlife Refuge,A,32.64175,-117.10916
-117.1086192,32.65567056,335,6,6-435,Paradise Marsh,A,32.65567,-117.10861
-117.1097214,32.61366188,336,6,6-450,Chula Vista Wildlife Reserve Island,A,32.61366,-117.10971
-117.1148381,32.60154573,337,6,6-455,South Bay Salt Works & Otay River Channel,A,32.60154,-117.11483
-117.1226332,32.6049293,338,6,6-460,Emory Cove SB,A,32.60492,-117.12262
-117.1302749,32.55676084,339,6,6-510,Tijuana River,A,32.55676,-117.13026
-118.394356,32.85637805,340,6,6-680,.9 NM SE of Mosquito Cove,A,32.85637,-118.39434
-118.5270244,32.89584064,341,6,6-650,Seal Cove to Mail Point,A,32.89584,-118.52701
-118.513124,32.88034097,342,6,6-660,Mail Point to 1 NM SE,A,32.88034,-118.51311
-120.0020942,34.45809312,343,4,4-620,La Llagas / El Capt Ranch Beach,A,34.45809,-120.00208
-119.6866134,34.41308902,344,4,4-670,Mission Creek & Laguna Creek,A,34.41308,-119.6866
-117.5930267,33.38476021,345,6,6-110,San Mateo Creek,A,33.38476,-117.59301
-117.5805624,33.37990919,346,6,6-115,San Onofre Creek,A,33.3799,-117.58055
-117.4522928,33.27532762,347,6,6-125,Hidden Creek,A/C,33.27532,-117.45228
-120.6044168,34.68960272,348,4,4-550,Ocean Beach,A,34.6896,-120.6044
-122.118299,37.53796076,349,2,2-328,"Ideal Marsh, Coyote Hill Slough - Dumbarton Bridge",A,37.53796,-122.11829
-122.3715131,37.73588593,350,2,2-353,Heron's Head Park - India Basin,A,37.73588,-122.3715
-121.9640629,37.4602189,351,2,2-378,Mallard Slough,A,37.46021,-121.96405
-122.0218976,37.45996526,352,2,2-376,Alviso Slough,A,37.45996,-122.02188
-122.0379291,37.45257403,353,2,2-375,Guadalupe Slough,A,37.45257,-122.03792
-122.0635938,37.44577293,354,2,2-374,Stevens Creek,A,37.44577,-122.06358
-122.0780469,37.45065797,355,2,2-373,Mountain View Slough,A,37.45065,-122.07803
-122.0962891,37.4531398,356,2,2-372,Charleston and Mayfield Sloughs,A,37.45313,-122.09628
-122.1158149,37.46777367,357,2,2-370,Palo Alto Marsh,A,37.46777,-122.1158
-122.1712046,37.50832265,358,2,2-367,Greco Island/Ravenswood Slough,A,37.50832,-122.17119
-122.2222224,37.52992113,359,2,2-364,Bair Island,A,37.52992,-122.22221
-122.2257996,37.54296188,360,2,2-363,Steinberger Slough,A,37.54296,-122.22579
-122.2196676,37.52256532,361,2,2-366,Corkscrew Slough,A,37.52256,-122.21965
-122.2010949,37.52494785,362,2,2-365,Redwood Creek,A,37.52494,-122.20108
-122.2443269,37.55406943,363,2,2-362,Belmont Slough,A,37.55406,-122.24431
-122.3688535,37.60806651,364,2,2-361,Airport Mudflat,A,37.60806,-122.36884
-122.3816759,37.74780696,365,2,2-354,Islais Creek - Pier 94 Saltmarsh,A,37.7478,-122.38166
-122.4711892,37.96559127,366,2,2-427,Marin Islands,A/C,37.96559,-122.47118
-122.4918373,37.96787092,367,2,2-426,San Rafael Creek Marsh,A,37.96787,-122.49182
-122.5000776,37.93229525,368,2,2-425,Corte Madera Marshes,A,37.93229,-122.50006
-122.4769742,37.86504615,369,2,2-420,Richardson Bay Marshes,A,37.86504,-122.47696
-122.3133813,37.83320982,370,2,2-495,Emeryville Lagoon/Mudflats,A,37.8332,-122.31337
-122.3144731,37.85010097,371,2,2-490,Berkeley Eelgrass Beds & Cove,A,37.8501,-122.31446
-122.3129989,37.89477759,372,2,2-480,Albany Marsh,A,37.89477,-122.31299
-122.3247454,37.90537456,373,2,2-454,Richmond Inner Harbor/Hoffman Marsh,A,37.90537,-122.32473
-122.4186202,37.93216129,374,2,2-451,Castro Rocks,A/B,37.93216,-122.41861
-122.4174818,37.94080181,375,2,2-452,Richmond Eelgrass Beds,A,37.9408,-122.41747
-122.3553275,37.89634019,376,2,2-453,Brooks Island,A,37.89634,-122.35531
-122.4601656,37.80413105,377,2,2-403,Crissy Field Tidal Marsh,A,37.80413,-122.46015
-122.2898988,38.17342686,378,2,2-583,Napa River Marshes,A,38.17342,-122.28989
-122.3108586,38.09902147,379,2,2-582,N.E. San Pablo Bay,A,38.09902,-122.31085
-122.403562,38.15099457,380,2,2-581,Sonoma Creek/Napa Slough,A,38.15099,-122.40355
-122.4856852,38.11244828,381,2,2-571,Petaluma River Marshes,A,38.11244,-122.48567
-122.4850616,38.09779101,382,2,2-554,Novato Creek Marshes,A,38.09779,-122.48505
-122.4970608,38.01696547,383,2,2-553,Gallinas Creek Marshes,A,38.01696,-122.49705
-122.4680643,38.00625203,384,2,2-552,China Camp Marsh,A,38.00625,-122.46805
-122.400099,37.9609897,385,2,2-501,Castro Creek and Marshes,A,37.96098,-122.40009
-122.3833462,37.97629732,386,2,2-502,San Pablo Creek Marshes,A,37.97629,-122.38333
-122.3619903,37.99141875,387,2,2-503,Pinole Point Marshes - South,A,37.99141,-122.36198
-122.3413313,38.00535367,388,2,2-504,Pinole Point Marshes - North,A,38.00535,-122.34132
-122.2952619,38.01692307,389,2,2-505,Pinole Creek and Wetlands,A,38.01692,-122.29525
-122.4542291,38.12241975,390,2,2-572,Tolay Creek Marshes,A,38.12241,-122.45422
-122.4019505,37.98074396,391,2,2-506,San Pablo Bay Eelgrass Bed,A,37.98074,-122.40194
-122.0605624,38.1245887,392,2,2-655,"Joice Island, Suisun Slough, and  Montezuma Slough",A,38.12458,-122.06055
-122.0217267,38.11911045,393,2,2-660,Grizzly Bay,A,38.11911,-122.02171
-122.0026112,38.08880366,394,2,2-665,Simmons Island,A,38.0888,-122.0026
-121.9808289,38.07548521,395,2,2-667,Freeman & Snag Islands,A,38.07548,-121.98082
-121.9669639,38.0742165,396,2,2-668,Dutton Island,A,38.07421,-121.96695
-121.9354015,38.08183958,397,2,2-671,Honker Bay West - Wheeler Island Shore,A,38.08183,-121.93539
-121.9109976,38.08199446,398,2,2-672,Honker Bay North-Van Sickle Island Shore,A,38.08199,-121.91098
-121.9207209,38.05978864,399,2,2-673,Honker Bay East/Chipps Island Shore,A,38.05978,-121.92071
-121.9840466,38.06389065,400,2,2-633,Middle Ground Island,A,38.06389,-121.98403
-121.9763554,38.04991091,401,2,2-608,Shore Acres Marsh,A,38.04991,-121.97634
-122.0177579,38.05259686,402,2,2-607,Weapons Station Marshes & Seal Islands,A,38.05259,-122.01774
-122.030712,38.08766466,403,2,2-632,Ryer Island,A,38.08766,-122.0307
-122.0463725,38.07225146,404,2,2-631,Roe Island,A,38.07225,-122.04636
-122.069105,38.05110516,405,2,2-605,Hastings Slough & Point Edith,A,38.0511,-122.06909
-122.0980802,38.04099109,406,2,2-603,Bulls Head Marsh and Pacheco Creek,A,38.04099,-122.09807
-122.0983775,38.07949573,407,2,2-654,Goodyear Marsh,A,38.07949,-122.09836
-122.1375712,38.02749098,408,2,2-601,Martinez Marsh,A,38.02749,-122.13756
-122.1479875,38.04098487,409,2,2-652,Benicia Marsh,A,38.04098,-122.14797
-122.1874898,38.06613614,410,2,2-651,Southhampton Bay,A,38.06613,-122.18748
-122.0706846,38.15601569,411,2,2-680,Suisun Marsh West: Suisun Slough Drainage,A,38.15601,-122.07067
-121.9627009,38.17529231,412,2,2-690,Suisun Marsh Central/Grizzly Island/Montezuma Slou,A,38.17529,-121.96269
-121.9310495,38.1699805,413,2,2-695,Suisun Marsh North/Denverton/Nurse Slough Drainage,A,38.16998,-121.93104
-121.9313919,38.04760631,414,2,2-700,Entrapment Zone,A,38.0476,-121.93138
-121.9493782,38.04855753,415,2,2-702,Stake Point Marshes,A,38.04855,-121.94937
-121.9216528,38.04042064,416,2,2-705,Mallard Island,A,38.04042,-121.92164
-121.8692024,38.03982843,417,2,2-710,Brown's Island,A,38.03982,-121.86919
-121.8539224,38.05345265,418,2,2-712,Winter Island,A,38.05345,-121.85391
-121.8292411,38.02089172,419,2,2-715,Pittsburg-Antioch Marsh,A,38.02089,-121.82923
-121.7838859,38.01377077,420,2,2-718,Antioch Dunes National Wildlife Refuge,A,38.01377,-121.78387
-121.7306633,38.02055205,421,2,2-730,Big Break Complex,A,38.02055,-121.73065
-121.6629106,38.01275639,422,2,2-734,Dutch Slough East,A,38.01275,-121.6629
-121.6139267,38.10715673,423,2,2-743,Sevenmile Slough,A,38.10715,-121.61391
-121.9196894,38.05325527,424,2,2-752,"Chipps Island, Southern Side",A,38.05325,-121.91968
-121.8921239,38.05292169,425,2,2-755,Spoonbill Creek,A,38.05292,-121.89211
-121.8769301,38.05906042,426,2,2-757,Van Sickle Island,A,38.05906,-121.87692
-121.8651299,38.0715182,427,2,2-760,Montezuma Slough-East Mouth,A,38.07151,-121.86512
-121.8540119,38.06978067,428,2,2-770,Chain Island,A,38.06978,-121.854
-121.8409733,38.07434502,429,2,2-765,Montezuma Island and Collinsville,A,38.07434,-121.84096
-121.824225,38.04870046,430,2,2-780,Lower Sherman Island-Sherman Lake Complex,A,38.0487,-121.82421
-121.8200904,38.0269298,431,2,2-783,Kimball Island-Cabin Slough,A,38.02692,-121.82008
-121.7790362,38.03136265,432,2,2-786,Mayberry Slough-Donlon Island,A,38.03136,-121.77902
-121.7785088,38.02373327,433,2,2-789,West Island,A,38.02373,-121.7785
-121.7796342,38.01236843,434,2,2-719,Antioch Dunes and Quarry Canyon,A,38.01236,-121.77962
-121.7513892,38.08247976,435,2,2-800,"Sacramento River, Lower Reach",A/B,38.08247,-121.75138
-121.7120199,38.08500941,436,2,2-804,"Sacramento River, Horseshoe Bend at Decker Island",A,38.085,-121.71201
-121.6578736,38.17486316,437,2,2-810,"Sacramento River, Lower Grand Island Reach",A,38.17486,-121.65786
-121.5576431,38.21459064,438,2,2-813,"Sacramento River, Isleton-Walnut Grove Reach",A/C,38.21459,-121.55763
-121.5571304,38.19002748,439,2,2-814,Georgiana Slough,A/C,38.19002,-121.55712
-121.5061145,38.24560979,440,2,2-815,Delta Cross Channel/Lower Snodgrass Slough,A,38.2456,-121.5061
-121.4946792,38.26336804,441,2,2-816,Snodgrass Slough Complex,A,38.26336,-121.49467
-121.5032914,38.33952037,442,2,2-818,Stone Lake Complex,A,38.33952,-121.50328
-121.5311881,38.433047,443,2,2-820,"Sacramento River, Courtland-Sacramento Reach",A/C,38.43304,-121.53117
-121.5780258,38.32865625,444,2,2-832,Sutter Slough,A/B,38.32865,-121.57801
-121.5720165,38.3548131,445,2,2-834,Elk Slough,A,38.35481,-121.572
-121.6942301,38.24421482,446,2,2-840,Lindsey Slough,A,38.24421,-121.69422
-121.6795631,38.2343102,447,2,2-850,Cache Slough,A,38.23431,-121.67955
-121.6682176,38.23443638,448,2,2-855,Miner Slough,A,38.23443,-121.6682
-121.6801509,38.24229056,449,2,2-860,Prospect Slough,A,38.24229,-121.68014
-121.5671423,38.09657947,450,2,2-870,Mokelumne River Mouth,A,38.09657,-121.56713
-121.5586345,38.13657371,451,2,2-873,North Mokelumne River,A/B,38.13657,-121.55862
-121.5612137,38.12742202,452,2,2-880,South Mokelumne River,A,38.12742,-121.5612
-121.4948867,38.1428338,453,2,2-882,Sycamore Slough,A,38.14283,-121.49487
-121.50898,38.14547605,454,2,2-884,Sycamore Island,A,38.14547,-121.50897
-121.4864546,38.16716386,455,2,2-886,Hog Slough,A,38.16716,-121.48644
-121.4742934,38.19492467,456,2,2-888,Beaver Slough,A,38.19492,-121.47428
-121.479121,38.24565773,457,2,2-890,"Mokelumne River, New Hope Reach",A,38.24565,-121.47911
-121.4280603,38.25891203,458,2,2-895,Cosumnes River Reserve,A,38.25891,-121.42805
-121.4276255,38.25135795,459,2,2-896,"Mokelumne River, Thornton Reach",A,38.25135,-121.42761
-121.5743599,38.30469803,460,2,2-830,Steamboat Slough,A,38.30469,-121.57435
-121.5782596,38.06954534,461,2,2-900,Old River Mouth at San Joaquin River,A,38.06954,-121.57825
-121.5971248,38.04657486,462,2,2-905,Frank's Tract Complex,A,38.04657,-121.59711
-121.6045236,38.01932418,463,2,2-908,Sand Mound Slough,A,38.01932,-121.60451
-121.5803823,38.01068958,464,2,2-910,Old River: Quimby Island Complex,A,38.01068,-121.58037
-121.5863018,37.97192101,465,2,2-915,Rock Slough,A,37.97192,-121.58629
-121.5476169,37.94040396,466,2,2-917,Railroad Cut,A,37.9404,-121.5476
-121.5750925,37.91810378,467,2,2-922,Indian Slough,A,37.9181,-121.57508
-121.5428389,37.91381005,468,2,2-924,Woodward Canal,A,37.9138,-121.54283
-121.5641877,37.85711936,469,2,2-925,Old River: Coney Island Reach,A,37.85711,-121.56417
-121.5738121,37.8598635,470,2,2-927,Widdows and Eucalyptus Islands,A,37.85986,-121.5738
-121.5208268,37.87545505,471,2,2-929,Victoria Canal,A,37.87545,-121.52081
-121.5525706,37.81496369,472,2,2-930,Old River: Fabian Tract Reach,A,37.81496,-121.55256
-121.5449457,37.81959482,473,2,2-932,Grant Line Canal (West),A,37.81959,-121.54493
-121.3833032,37.80352866,474,2,2-935,Paradise Cut,A,37.80352,-121.38329
-121.3643401,37.81906352,475,2,2-940,Old River: Stewart Tract Reach,A,37.81906,-121.36433
-121.526029,38.0401419,476,2,2-950,"Middle River, Mandeville Reach",A,38.04014,-121.52602
-121.5089927,38.02470108,477,2,2-952,Columbia Cut,A,38.0247,-121.50898
-121.5229595,37.98383638,478,2,2-960,Mildred Island/Latham Slough,A,37.98383,-121.52295
-121.4986038,37.97155715,479,2,2-963,Turner -Empire Cut,A,37.97155,-121.49859
-121.4726377,37.96458116,480,2,2-964,Whiskey Slough,A,37.96458,-121.47262
-121.5282462,37.95651688,481,2,2-965,Middle River: Bacon Island Reach,A,37.95651,-121.52823
-121.5283096,37.93218893,482,2,2-970,Middle River: Upper Jones Tract,A,37.93218,-121.5283
-121.4674742,37.88239777,483,2,2-980,Middle River: Union Island Reach,A,37.88239,-121.46746
-118.9332028,34.0455991,484,5,5-105,Arroyo Sequit Creek,A,34.04656,-118.93383
-118.5801527,34.03990752,485,5,5-115,Topanga Creek,A,34.03988,-118.58013
-118.035963,33.68255492,486,5,5-325,Bolsa Chica Restored Wetland,A,33.68344,-118.03593
-123.7947391,39.30210193,487,1,1-460,Big River,A,39.3021,-123.79473
-118.5917269,33.03753802,488,6,6-620,Bird Rock,A,33.03753,-118.59171
-120.8124242,35.18918028,489,4,4-325,Deer Canyon wave cut platform,A,35.18918,-120.81241
-120.8166244,35.17938034,490,4,4-330,Pecho Rock,A,35.17938,-120.81661
-120.7499221,35.15608003,491,4,4-335,Point San Luis breakwater,A,35.15608,-120.74991
-117.2522372,32.75263412,492,6,6-205,San Diego River Mouth,A,32.755,-117.2533
-120.1765274,34.00605041,493,4,4-826,Santa Rosa Island - Arlington Canyon Lagoon,A,34.005,-120.1774
-122.473529,37.83211695,494,2,2-415,Horseshoe Bay,A,37.8317,-122.475
-122.3250257,37.80540982,495,2,2-304,Middle Harbor Shoreline Park,A,37.805,-122.325
-124.1681373,40.8157102,496,1,1-330,Indian Island,A,40.8153,-124.1681
-124.159684,40.80918824,497,1,1-328,Woodley Island,A,40.8097,-124.1597
-121.7937362,36.80884113,498,3,3-310,Elkhorn Slough,A,36.8083,-121.795
-121.9699996,36.59118827,499,3,3-437,Seal Rock,A,36.5917,-121.97
-123.5081595,38.74071592,500,2,2-103,Del Mar Landing Ecological Reserve,B,38.74071,-123.50815
-123.4422024,38.69927558,501,2,2-104,Sea Ranch,B,38.69927,-123.44219
-123.4321028,38.67889363,502,2,2-107,Black Point,B,38.67889,-123.43209
-123.4080742,38.6546176,503,2,2-110,Stewarts Point,B,38.65461,-123.40806
-123.327236,38.56378737,504,2,2-113,Gerstle Cove,B,38.56378,-123.32722
-123.2988953,38.54623408,505,2,2-116,Stillwater Cove,B,38.54623,-123.29888
-123.1564252,38.4666096,506,2,2-119,Russian Gulch,B,38.4666,-123.15641
-123.0564914,38.30092483,507,2,2-143,Bodega Head,B,38.30092,-123.05648
-123.0205626,38.30681343,508,2,2-152,Pinnacle Rocks,C,38.30681,-123.02055
-122.9794869,38.26584086,509,2,2-161,Dillon Beach Rocks,C,38.26584,-122.97947
-122.8273624,37.99865087,510,2,2-210,Point Resistance,B,37.99865,-122.82735
-122.8117787,37.98483565,511,2,2-213,Miller Point,B,37.98483,-122.81177
-122.6983296,37.88822483,512,2,2-219,Duxbury Reef,B,37.88822,-122.69832
-122.5178087,37.82216887,513,2,2-234,Point Bonita & Bonita Cove,C,37.82216,-122.5178
-122.4874267,37.82341601,514,2,2-236,Point Diablo to Lime Point,C,37.82341,-122.48741
-122.5164277,37.77824646,515,2,2-246,Cliff House and Seal Rocks,B,37.77824,-122.51641
-122.5058792,37.59631594,516,2,2-253,San Pedro Creek,B,37.59631,-122.50587
-122.5127205,37.59633588,517,2,2-255,Shelter Cove & San Pedro Rock,B,37.59633,-122.51271
-122.5197195,37.5366151,518,2,2-258,Point Montara Area,B,37.53661,-122.51971
-122.5085904,37.50827997,519,2,2-260,Seal Cove to Pillar Point,B,37.50827,-122.50858
-122.418551,37.23915307,520,2,2-284,Pescadero Point to Pebble Beach,B,37.23915,-122.41854
-122.3472812,37.14575251,521,2,2-289,Whitehouse Creek,B,37.14575,-122.34727
-122.3061422,37.11613063,522,2,2-296,Ano Nuevo Creek,B,37.11613,-122.30613
-122.4090091,37.225822,523,2,2-282,Bean Hollow State Beach,B,37.22582,-122.409
-124.140603,41.67294368,524,1,1-160,Scat Beach,B,41.67294,-124.14059
-124.1406421,41.64316836,525,1,1-165,Last Chance Rock,C,41.64316,-124.14063
-124.3900808,40.47655811,526,1,1-270,Bear River,B,40.47655,-124.39007
-124.403687,40.41534223,527,1,1-275,Steamboat Rock,B,40.41534,-124.40367
-124.3536755,40.32596208,528,1,1-279,Hair Seal Rock,B,40.32596,-124.35366
-124.310371,40.21926501,529,1,1-290,Cooskie Creek,B,40.21926,-124.31036
-124.0770559,40.0266707,530,1,1-298,Shelter Cove & Cormorant Hotel,B,40.02667,-124.07704
-123.9475499,39.91697504,531,1,1-400,Morgan Rock,C,39.91697,-123.94754
-123.9269494,39.90207578,532,1,1-402,Seal Rocks,B,39.90207,-123.92694
-123.9017484,39.86047744,533,1,1-406,Little Jackass Creek,B,39.86047,-123.90173
-123.7768404,39.52499102,534,1,1-432,Inglenook Creek & Sandhill Lake Creek,B,39.52499,-123.77683
-123.8086406,39.45909408,535,1,1-440,Pudding Creek,B,39.45909,-123.80863
-123.8261408,39.40819659,536,1,1-448,South Fort Bragg,B,39.40819,-123.82613
-123.8255406,39.36959851,537,1,1-452,Caspar Point,B,39.36959,-123.82553
-123.8091396,39.30510175,538,1,1-458,Mendocino Headlands State Park,B,39.3051,-123.80913
-123.8019393,39.29600222,539,1,1-462,Mendocino Bay,B,39.296,-123.80193
-123.7749383,39.24000495,540,1,1-466,Dark Gulch,B,39.24,-123.77492
-123.7157407,39.11370858,541,1,1-476,Bonee Gulch,B,39.1137,-123.71573
-123.6911423,39.02021118,542,1,1-480,Irish Gulch,C,39.02021,-123.69113
-123.701143,39.00821185,543,1,1-482,Alder Creek,B,39.00821,-123.70113
-123.7414443,38.95571405,544,1,1-486,Point Arena,B,38.95571,-123.74143
-122.2680949,37.07775317,545,3,3-115,Greyhound Rock and inland,B,37.07775,-122.26808
-122.2641948,37.07325328,546,3,3-120,Pelican Rock and inland area,B,37.07325,-122.26418
-122.2006933,37.01045482,547,3,3-140,Davenport Pier,C,37.01045,-122.20068
-122.0263867,36.95135596,548,3,3-200,Point Santa Cruz/Lighthouse Field State Beach,B,36.95135,-122.02637
-122.0015859,36.96105562,549,3,3-220,Santa Cruz Harbor Entrance,B,36.96105,-122.00157
-121.935783,36.97855543,550,3,3-260,New Brighton State Beach,C,36.97855,-121.93577
-121.9344797,36.63726421,551,3,3-395,Sand Hills at Point Pinos,C,36.63726,-121.93447
-121.9441795,36.56166571,552,3,3-448,Offshore Pescadero Rocks,C,36.56166,-121.94417
-121.9474797,36.56666562,553,3,3-450,Pebble Beach,C,36.56666,-121.94747
-121.8993806,36.30526835,554,3,3-522,Point Sur,C,36.30526,-121.89937
-121.90788,36.35746798,555,3,3-511,Rocks off Hurricane Point,B,36.35746,-121.90787
-121.6979737,36.17526776,556,3,3-550,Partington Point and South,B,36.17526,-121.69796
-121.6182687,36.0846671,557,3,3-560,Dolan Rock Area,B,36.08466,-121.61826
-121.9085797,36.37496784,558,3,3-507,Castle Rock,B,36.37496,-121.90857
-121.2314461,35.65167443,559,4,4-045,"Hearst State Beach, rocky platform",B,35.65167,-121.23143
-121.0692363,35.51887704,560,4,4-100,"Cambria Air Force Base, wave cut platform off of",B,35.51887,-121.06922
-121.0339849,35.48831396,561,4,4-105,"Point Estero, wave cut platform north of",B,35.48831,-121.03397
-121.0009326,35.46047806,562,4,4-110,Point Estero wave cut platform,B,35.46047,-121.00092
-120.6572182,35.15008029,563,4,4-405,Rocky Platform,B,35.15008,-120.65721
-119.963987,34.44032164,564,4,4-625,Naples area,B,34.44032,-119.96397
-119.9292853,34.43519884,565,4,4-630,Eagle Canyon Creek,C,34.43519,-119.92927
-119.8441839,34.40490118,566,4,4-650,Goleta Point and Campus Lagoon,C,34.4049,-119.84417
-119.8313841,34.41590124,567,4,4-652,Goleta Beach,C,34.4159,-119.83137
-119.8083839,34.4161017,568,4,4-657,More Mesa - Goleta Rocks,C,34.4161,-119.80837
-119.6992799,34.40110231,569,4,4-662,Mesa shoreline and Leadbetter Beach,C,34.4011,-119.69927
-119.6887794,34.40720207,570,4,4-665,Santa Barbara Harbor,C,34.4072,-119.68877
-119.5762726,34.41200033,571,4,4-677,Loon Point and Elyse Creek,C,34.412,-119.57626
-119.4876668,34.38190002,572,4,4-695,"""Wave"" area NW of Rincon Point",B,34.3819,-119.48765
-119.6012925,34.42006536,573,4,4-675,Summerland Beach,C,34.42006,-119.60128
-119.4784663,34.37330032,574,4,4-701,Rincon Point,B,34.3733,-119.47845
-119.5595689,33.99560865,575,4,4-867,"Santa Cruz Island,Sandstone Point area",B,33.9956,-119.55956
-117.7147822,33.46015005,576,5,5-380,Dana Point,B,33.46015,-117.71477
-117.2780827,32.84725202,577,6,6-180,La Jolla Peninsula,B,32.84725,-117.27807
-117.2491814,32.6822564,578,6,6-310,Point Loma,B,32.68225,-117.24917
-117.2354983,32.70192603,579,6,6-410,USN Marine Mammal's Research Center,B,32.70192,-117.23549
-117.2395114,32.69901128,580,6,6-415,Navy Magnetic Silencing Facility,B,32.69901,-117.2395
-117.1553436,32.67890758,581,6,6-425,USN Amphibious Base,B,32.6789,-117.15533
-118.6140574,33.03408383,582,6,6-610,Castle Rock,B,33.03408,-118.61405
-118.5625806,33.02455822,583,6,6-630,Wilson Cove N. Point,B,33.02455,-118.56257
-118.5575963,33.00749034,584,6,6-640,Wilson Cove,B,33.00749,-118.55758
-118.4919496,32.8483477,585,6,6-670,.8 to 1.9 NM SE of Lost Point,B,32.84834,-118.49194
-120.2060469,34.47036619,586,4,4-605,Canada Del Alcatraz / Cementario Creek,C,34.47036,-120.20603
-117.1018379,32.61818007,587,6,6-445,J Street Marsh,B,32.61818,-117.10183
-120.3556487,34.45847033,588,4,4-572,San  Augustine Beach Access and Staging Area,B,34.45847,-120.35564
-119.4226575,34.34825814,589,4,4-705,Los Sauces Creek  a.k.a. willow Creek,C,34.34825,-119.42265
-119.4190587,34.344812,590,4,4-711,Madranio Canyon,C,34.34481,-119.41905
-119.4069918,34.33518504,591,4,4-717,Javon Canyon,C,34.33518,-119.40698
-119.3913755,34.31929008,592,4,4-723,Padre Juan Canyon,C,34.31929,-119.39136
-119.3751587,34.32102733,593,4,4-729,A-Lease Canyon  a.k.a. Ice Box,C,34.32102,-119.37515
-119.3667188,34.31747922,594,4,4-735,Amphitheater Canyon,C,34.31747,-119.36671
-122.3708502,37.71355707,595,2,2-352,"South Basin, Hunters Point",B,37.71355,-122.37084
-122.4693758,37.90384712,596,2,2-424,Paradise Cay Eelgrass & Manna,B,37.90384,-122.46936
-122.4415034,37.87892844,597,2,2-422,Keil Cove,B,37.87892,-122.44149
-122.442353,37.88748027,598,2,2-421,Paradise Cove & Tiburon Peninsula,C/X,37.88748,-122.44234
-122.4233083,37.82660518,599,2,2-402,Alcatraz Island,B,37.8266,-122.4233
-122.4102138,37.80972349,600,2,2-401,Pier 39,B,37.80972,-122.4102
-122.3877297,37.79454561,601,2,2-400,San Francisco Waterfront,C/X,37.79454,-122.38772
-122.3652134,37.9178855,602,2,2-455,Santa Fe Channel,C/X,37.91788,-122.3652
-122.4319236,37.86269057,603,2,2-423,Angel Island,C/X,37.86269,-122.43191
-122.0943233,38.06073987,604,2,2-630,Suisun Shoal,B/C,38.06073,-122.09431
-121.6752674,38.0586913,605,2,2-735,False River West,C,38.05869,-121.67525
-121.6606542,38.04238459,606,2,2-736,Taylor Slough and West Piper Slough,B,38.04238,-121.66064
-121.641142,38.05102988,607,2,2-737,Little Frank's Tract,C,38.05102,-121.64113
-121.7113476,38.03769778,608,2,2-740,San Joaquin River: Sherman-Webb Reach,B,38.03769,-121.71133
-121.6480751,38.06868608,609,2,2-742,Fisherman's Cut,B,38.06868,-121.64806
-121.6857801,38.0877872,610,2,2-790,Threemile Slough-San Joaquin River,B,38.08778,-121.68577
-121.7009536,38.10579014,611,2,2-805,Threemile Slough-Sacramento River,B,38.10579,-121.70094
-121.656161,38.29625863,612,2,2-859,Sacramento River Deep Water Ship Channel,B,38.29625,-121.65615
-121.6426152,38.17913073,613,2,2-811,Sacramento Anthicid Beetle Habitat,C,38.17913,-121.6426
-121.5586463,37.92775033,614,2,2-920,Old River: Orwood Reach,B,37.92775,-121.55863
-121.4192379,37.79061928,615,2,2-934,Tom Paine Slough,B,37.79061,-121.41922
-121.4844069,37.89556145,616,2,2-974,Trapper Slough,B,37.89556,-121.48439
-122.9322918,38.18713052,617,2,2-177,Pelican Point,B,38.18713,-122.93228
-119.6086708,34.03850806,618,4,4-864,"Santa Cruz Island, northwest end",B,34.0385,-119.60866
-119.2090535,34.14860989,619,4,4-780,Port Hueneme,C,34.1486,-119.20904
-119.2252913,34.15819111,620,4,4-775,Channel Islands Harbor,C,34.15819,-119.22528
-122.9358931,38.19714235,621,2,2-171,Hog Island,B,38.19714,-122.93588
-120.7243209,35.17058005,622,4,4-345,Avila Rock,B,35.17058,-120.72431
-122.3833963,37.76663978,623,2,2-350,San Francisco South Collection/Economic Strategies,E/X,37.7667,-122.3833
-117.3373824,33.17063521,624,6,6-152,Loma Alta Creek,B,33.1717,-117.3367
-122.2615052,37.75597049,625,2,2-307,Alameda Eelgrass Beds,C/A,37.75597,-122.26149
-122.2571808,37.73039963,626,2,2-310,Bay Farm Island Eelgrass Beds,C/A,37.73039,-122.25717
-122.3620322,37.80632321,627,2,2-351,Yerba Buena Island,B/A,37.80632,-122.36202